MOZHAYETS 4 (RS-22)     
1 27939U 03042A   25106.85819189  .00005215  00000+0  83464-3 0  9992
2 27939  98.3237 275.0299 0011719 174.5492 322.0038 14.72174237152799
CUBESAT XI-V            
1 28895U 05043F   25106.91397409  .00008499  00000+0  13971-2 0  9992
2 28895  98.2413 250.6255 0015809 116.3909 243.8921 14.70771070 39058
CUTE-1.7+APD II (CO-65) 
1 32785U 08021C   25106.45352588  .00012382  00000+0  90583-3 0  9993
2 32785  97.7829  77.2563 0011363  44.2646 315.9486 15.03692054920944
SEEDS II (CO-66)        
1 32791U 08021J   25106.45290811  .00027987  00000+0  14144-2 0  9995
2 32791  97.7261  85.3593 0004671  33.3824 326.7702 15.17020223922283
YUBILEINY (RS-30)       
1 32953U 08025A   25106.88335277  .00000051  00000+0  29337-3 0  9996
2 32953  82.4993 260.5726 0019995 160.7997 199.3840 12.43162541766720
KKS-1 (KISEKI)          
1 33499U 09002H   25106.83010546  .00006430  00000+0  82813-3 0  9997
2 33499  98.1224  18.1686 0006955 223.7509 136.3153 14.81408293873032
SWISSCUBE               
1 35932U 09051B   25106.67274739  .00002588  00000+0  53546-3 0  9994
2 35932  98.4354   1.8895 0008291  96.6944 263.5200 14.61159266826843
BEESAT-1                
1 35933U 09051C   25106.69441866  .00002190  00000+0  46030-3 0  9993
2 35933  98.4285   2.3607 0006614 106.8919 253.3006 14.60600613826901
ITUPSAT1                
1 35935U 09051E   25106.66713933  .00001931  00000+0  41771-3 0  9998
2 35935  98.4386   1.9174 0008725 115.6416 244.5685 14.59409277826506
XIWANG-1 (HOPE-1)       
1 36122U 09072B   25106.58219177 -.00000002  00000+0  10894-3 0  9993
2 36122 100.3443  63.5103 0007964 125.7009 234.4846 13.16422882736878
O/OREOS (USA 219)       
1 37224U 10062C   25106.70063696  .00005000  00000+0  50895-3 0  9992
2 37224  71.9715 324.4490 0014936 166.8541 193.3021 14.91097973 53018
JUGNU                   
1 37839U 11058B   25106.97335117  .00001014  00000+0  39056-3 0  9996
2 37839  19.9622  17.4230 0018667  50.3720  42.2965 14.13577802698642
SRMSAT                  
1 37841U 11058D   25106.74383260  .00000592  00000+0  17818-3 0  9998
2 37841  19.9707 120.3269 0011700 191.7437 324.4047 14.11412238697498
STRAND-1                
1 39090U 13009E   25106.77435403  .00000752  00000+0  26909-3 0  9993
2 39090  98.3829 292.8830 0009847  69.1501 291.0740 14.36763240635827
