[
  {
    "OBJECT_NAME": "MOZHAYETS 4 (RS-22)",
    "OBJECT_ID": "2003-042A",
    "EPOCH": "2025-04-16T20:35:47.779296",
    "MEAN_MOTION": 14.72174237,
    "ECCENTRICITY": 0.0011719,
    "INCLINATION": 98.3237,
    "RA_OF_ASC_NODE": 275.0299,
    "ARG_OF_PERICENTER": 174.5492,
    "MEAN_ANOMALY": 322.0038,
    "EPHEMERIS_TYPE": 0,
    "CLASSIFICATION_TYPE": "U",
    "NORAD_CAT_ID": 27939,
    "ELEMENT_SET_NO": 999,
    "REV_AT_EPOCH": 15279,
    "BSTAR": 0.00083464,
    "MEAN_MOTION_DOT": 5.215e-5,
    "MEAN_MOTION_DDOT": 0
  },
  {
    "OBJECT_NAME": "CUBESAT XI-V",
    "OBJECT_ID": "2005-043F",
    "EPOCH": "2025-04-16T21:56:07.361376",
    "MEAN_MOTION": 14.7077107,
    "ECCENTRICITY": 0.0015809,
    "INCLINATION": 98.2413,
    "RA_OF_ASC_NODE": 250.6255,
    "ARG_OF_PERICENTER": 116.3909,
    "MEAN_ANOMALY": 243.8921,
    "EPHEMERIS_TYPE": 0,
    "CLASSIFICATION_TYPE": "U",
    "NORAD_CAT_ID": 28895,
    "ELEMENT_SET_NO": 999,
    "REV_AT_EPOCH": 3905,
    "BSTAR": 0.0013971,
    "MEAN_MOTION_DOT": 8.499e-5,
    "MEAN_MOTION_DDOT": 0
  },
  {
    "OBJECT_NAME": "CUTE-1.7+APD II (CO-65)",
    "OBJECT_ID": "2008-021C",
    "EPOCH": "2025-04-16T10:53:04.636032",
    "MEAN_MOTION": 15.03692054,
    "ECCENTRICITY": 0.0011363,
    "INCLINATION": 97.7829,
    "RA_OF_ASC_NODE": 77.2563,
    "ARG_OF_PERICENTER": 44.2646,
    "MEAN_ANOMALY": 315.9486,
    "EPHEMERIS_TYPE": 0,
    "CLASSIFICATION_TYPE": "U",
    "NORAD_CAT_ID": 32785,
    "ELEMENT_SET_NO": 999,
    "REV_AT_EPOCH": 92094,
    "BSTAR": 0.00090583,
    "MEAN_MOTION_DOT": 0.00012382,
    "MEAN_MOTION_DDOT": 0
  },
  {
    "OBJECT_NAME": "SEEDS II (CO-66)",
    "OBJECT_ID": "2008-021J",
    "EPOCH": "2025-04-16T10:52:11.260704",
    "MEAN_MOTION": 15.17020223,
    "ECCENTRICITY": 0.0004671,
    "INCLINATION": 97.7261,
    "RA_OF_ASC_NODE": 85.3593,
    "ARG_OF_PERICENTER": 33.3824,
    "MEAN_ANOMALY": 326.7702,
    "EPHEMERIS_TYPE": 0,
    "CLASSIFICATION_TYPE": "U",
    "NORAD_CAT_ID": 32791,
    "ELEMENT_SET_NO": 999,
    "REV_AT_EPOCH": 92228,
    "BSTAR": 0.0014144,
    "MEAN_MOTION_DOT": 0.00027987,
    "MEAN_MOTION_DDOT": 0
  },
  {
    "OBJECT_NAME": "YUBILEINY (RS-30)",
    "OBJECT_ID": "2008-025A",
    "EPOCH": "2025-04-16T21:12:01.679328",
    "MEAN_MOTION": 12.43162541,
    "ECCENTRICITY": 0.0019995,
    "INCLINATION": 82.4993,
    "RA_OF_ASC_NODE": 260.5726,
    "ARG_OF_PERICENTER": 160.7997,
    "MEAN_ANOMALY": 199.384,
    "EPHEMERIS_TYPE": 0,
    "CLASSIFICATION_TYPE": "U",
    "NORAD_CAT_ID": 32953,
    "ELEMENT_SET_NO": 999,
    "REV_AT_EPOCH": 76672,
    "BSTAR": 0.00029337,
    "MEAN_MOTION_DOT": 5.1e-7,
    "MEAN_MOTION_DDOT": 0
  },
  {
    "OBJECT_NAME": "KKS-1 (KISEKI)",
    "OBJECT_ID": "2009-002H",
    "EPOCH": "2025-04-16T19:55:21.111744",
    "MEAN_MOTION": 14.81408293,
    "ECCENTRICITY": 0.0006955,
    "INCLINATION": 98.1224,
    "RA_OF_ASC_NODE": 18.1686,
    "ARG_OF_PERICENTER": 223.7509,
    "MEAN_ANOMALY": 136.3153,
    "EPHEMERIS_TYPE": 0,
    "CLASSIFICATION_TYPE": "U",
    "NORAD_CAT_ID": 33499,
    "ELEMENT_SET_NO": 999,
    "REV_AT_EPOCH": 87303,
    "BSTAR": 0.00082813,
    "MEAN_MOTION_DOT": 6.43e-5,
    "MEAN_MOTION_DDOT": 0
  },
  {
    "OBJECT_NAME": "SWISSCUBE",
    "OBJECT_ID": "2009-051B",
    "EPOCH": "2025-04-16T16:08:45.374496",
    "MEAN_MOTION": 14.61159266,
    "ECCENTRICITY": 0.0008291,
    "INCLINATION": 98.4354,
    "RA_OF_ASC_NODE": 1.8895,
    "ARG_OF_PERICENTER": 96.6944,
    "MEAN_ANOMALY": 263.52,
    "EPHEMERIS_TYPE": 0,
    "CLASSIFICATION_TYPE": "U",
    "NORAD_CAT_ID": 35932,
    "ELEMENT_SET_NO": 999,
    "REV_AT_EPOCH": 82684,
    "BSTAR": 0.00053546,
    "MEAN_MOTION_DOT": 2.588e-5,
    "MEAN_MOTION_DDOT": 0
  },
  {
    "OBJECT_NAME": "BEESAT-1",
    "OBJECT_ID": "2009-051C",
    "EPOCH": "2025-04-16T16:39:57.772224",
    "MEAN_MOTION": 14.60600613,
    "ECCENTRICITY": 0.0006614,
    "INCLINATION": 98.4285,
    "RA_OF_ASC_NODE": 2.3607,
    "ARG_OF_PERICENTER": 106.8919,
    "MEAN_ANOMALY": 253.3006,
    "EPHEMERIS_TYPE": 0,
    "CLASSIFICATION_TYPE": "U",
    "NORAD_CAT_ID": 35933,
    "ELEMENT_SET_NO": 999,
    "REV_AT_EPOCH": 82690,
    "BSTAR": 0.0004603,
    "MEAN_MOTION_DOT": 2.19e-5,
    "MEAN_MOTION_DDOT": 0
  },
  {
    "OBJECT_NAME": "ITUPSAT1",
    "OBJECT_ID": "2009-051E",
    "EPOCH": "2025-04-16T16:00:40.838112",
    "MEAN_MOTION": 14.59409277,
    "ECCENTRICITY": 0.0008725,
    "INCLINATION": 98.4386,
    "RA_OF_ASC_NODE": 1.9174,
    "ARG_OF_PERICENTER": 115.6416,
    "MEAN_ANOMALY": 244.5685,
    "EPHEMERIS_TYPE": 0,
    "CLASSIFICATION_TYPE": "U",
    "NORAD_CAT_ID": 35935,
    "ELEMENT_SET_NO": 999,
    "REV_AT_EPOCH": 82650,
    "BSTAR": 0.00041771,
    "MEAN_MOTION_DOT": 1.931e-5,
    "MEAN_MOTION_DDOT": 0
  },
  {
    "OBJECT_NAME": "XIWANG-1 (HOPE-1)",
    "OBJECT_ID": "2009-072B",
    "EPOCH": "2025-04-16T13:58:21.368928",
    "MEAN_MOTION": 13.16422882,
    "ECCENTRICITY": 0.0007964,
    "INCLINATION": 100.3443,
    "RA_OF_ASC_NODE": 63.5103,
    "ARG_OF_PERICENTER": 125.7009,
    "MEAN_ANOMALY": 234.4846,
    "EPHEMERIS_TYPE": 0,
    "CLASSIFICATION_TYPE": "U",
    "NORAD_CAT_ID": 36122,
    "ELEMENT_SET_NO": 999,
    "REV_AT_EPOCH": 73687,
    "BSTAR": 0.00010894,
    "MEAN_MOTION_DOT": -2.0e-8,
    "MEAN_MOTION_DDOT": 0
  },
  {
    "OBJECT_NAME": "O/OREOS (USA 219)",
    "OBJECT_ID": "2010-062C",
    "EPOCH": "2025-04-16T16:48:55.033344",
    "MEAN_MOTION": 14.91097973,
    "ECCENTRICITY": 0.0014936,
    "INCLINATION": 71.9715,
    "RA_OF_ASC_NODE": 324.449,
    "ARG_OF_PERICENTER": 166.8541,
    "MEAN_ANOMALY": 193.3021,
    "EPHEMERIS_TYPE": 0,
    "CLASSIFICATION_TYPE": "U",
    "NORAD_CAT_ID": 37224,
    "ELEMENT_SET_NO": 999,
    "REV_AT_EPOCH": 5301,
    "BSTAR": 0.00050895,
    "MEAN_MOTION_DOT": 5.0e-5,
    "MEAN_MOTION_DDOT": 0
  },
  {
    "OBJECT_NAME": "JUGNU",
    "OBJECT_ID": "2011-058B",
    "EPOCH": "2025-04-16T23:21:37.541088",
    "MEAN_MOTION": 14.13577802,
    "ECCENTRICITY": 0.0018667,
    "INCLINATION": 19.9622,
    "RA_OF_ASC_NODE": 17.423,
    "ARG_OF_PERICENTER": 50.372,
    "MEAN_ANOMALY": 42.2965,
    "EPHEMERIS_TYPE": 0,
    "CLASSIFICATION_TYPE": "U",
    "NORAD_CAT_ID": 37839,
    "ELEMENT_SET_NO": 999,
    "REV_AT_EPOCH": 69864,
    "BSTAR": 0.00039056,
    "MEAN_MOTION_DOT": 1.014e-5,
    "MEAN_MOTION_DDOT": 0
  },
  {
    "OBJECT_NAME": "SRMSAT",
    "OBJECT_ID": "2011-058D",
    "EPOCH": "2025-04-16T17:51:07.136640",
    "MEAN_MOTION": 14.11412238,
    "ECCENTRICITY": 0.00117,
    "INCLINATION": 19.9707,
    "RA_OF_ASC_NODE": 120.3269,
    "ARG_OF_PERICENTER": 191.7437,
    "MEAN_ANOMALY": 324.4047,
    "EPHEMERIS_TYPE": 0,
    "CLASSIFICATION_TYPE": "U",
    "NORAD_CAT_ID": 37841,
    "ELEMENT_SET_NO": 999,
    "REV_AT_EPOCH": 69749,
    "BSTAR": 0.00017818,
    "MEAN_MOTION_DOT": 5.92e-6,
    "MEAN_MOTION_DDOT": 0
  },
  {
    "OBJECT_NAME": "STRAND-1",
    "OBJECT_ID": "2013-009E",
    "EPOCH": "2025-04-16T18:35:04.188192",
    "MEAN_MOTION": 14.3676324,
    "ECCENTRICITY": 0.0009847,
    "INCLINATION": 98.3829,
    "RA_OF_ASC_NODE": 292.883,
    "ARG_OF_PERICENTER": 69.1501,
    "MEAN_ANOMALY": 291.074,
    "EPHEMERIS_TYPE": 0,
    "CLASSIFICATION_TYPE": "U",
    "NORAD_CAT_ID": 39090,
    "ELEMENT_SET_NO": 999,
    "REV_AT_EPOCH": 63582,
    "BSTAR": 0.00026909,
    "MEAN_MOTION_DOT": 7.52e-6,
    "MEAN_MOTION_DDOT": 0
  }
]
